NOTSO_Launch / LM-2D (94328) / Xingwang Jishu Shiyan 09A-C (94327) / Xichang, China / 24 Apr 26 / ~0635 UTC / LEO_24Apr-0933Z

JDay 114 at 0919z:
 
Based on available PAIR data, JCO providers have indications of successful launch of a LM-D2 (94328) from Xichang Satellite Launch Center, China occurring at 0635z on 24Apr26 (JDay 114) , carrying the Xingwang Jishu Shiyan 09A-C  (94327). Based on current information the satellite is likely to be LEO with orbital characteristics of 51.68deg Inc and 259.30deg RAAN. Click link above to view products.
 
Historically, LM-2D have launched to a 35 deg inclination from Xichang launch site, however NOTAM closure area for this launch is 51 deg inclination which indicates an approximate 16.7 deg dogleg. Orbital altitude is estimated to be 595km. Nominals below are provided for pre dogleg and post dogleg.
 
Rotated nominals - 24 Apr 2026 0635z - pre-dogleg
0 PAYLOAD
1 94327U 00000    26114.27430556  .00000000  00000+0  00000+0 0    02
2 94327  51.6761 259.3060 0000000   0.0000 124.7410 14.90941696    06
0 CZ-2D
1 94328U 00000    26114.27430556  .00000000  00000+0  00000+0 0    03
2 94328  51.6761 259.3060 0000000   0.0000 124.7410 14.90941696    07

Rotated nominals - 24 Apr 2026 06:44:50z - post-dogleg
0 PAYLOAD
1 94327U 00000    26114.28113426  .00000000  00000+0  00000+0 0    07
2 94327  34.9950 259.3780 0000000   0.0000 161.3450 14.90941696    00
0 CZ-2D
1 94328U 00000    26114.28113426  .00000000  00000+0  00000+0 0    08
2 94328  35.1290 259.3760 0000000   0.0000 161.3460 14.90941696    00

Unrotated nominals - pre-dogleg
0 PAYLOAD
1 94327U 00000    26001.00000000  .00000000  00000+0  00000+0 0    05
2 94327  51.6761  48.9123 0000000   0.0000 124.7410 14.90941696    08
0 CZ-2D
1 94328U 00000    26001.00000000  .00000000  00000+0  00000+0 0    06
2 94328  51.6761  48.9123 0000000   0.0000 124.7410 14.90941696    09

Unrotated nominals - post-dogleg
0 PAYLOAD
1 94327U 00000    26001.00000000  .00000000  00000+0  00000+0 0    05
2 94327  34.9950  46.5192 0000000   0.0000 161.3450 14.90941696    03
0 CZ-2D
1 94328U 00000    26001.00000000  .00000000  00000+0  00000+0 0    06
2 94328  35.1290  46.5172 0000000   0.0000 161.3460 14.90941696    03

======================================================================
JDay 113 at 0555z:
 
Based on available PAIR data, JCO providers have indicated a possible upcoming launch of a Long March 2D from Xichang Satellite Launch Center, China on 24 Apr 26 (J Day 114) occurring between 0625z and 0646z with an expected launch time of 0635z, carrying an unknown Payload (94327). Based on current information, the satellite is likely to be in LEO with orbital characteristics of Inc: 35 deg and RAAN: 259 deg. 

COCO is provided. Click link above to view products.

Historically, LM-2D have launched to a 35 deg inclination from Xichang launch site, however NOTAM closure area for this launch is 51 deg inclination which indicates an approximate 16.7 deg dogleg. Orbital altitude is estimated to be 595km. Nominals below are provided for pre dogleg and post dogleg.

Rotated nominals - 24Apr0635z - Pre dogleg
0 PAYLOAD
1 94327U 00000    26114.27430556  .00000000  00000+0  00000+0 0    02
2 94327  51.6761 259.3060 0000000   0.0000 124.7410 14.90941696    06

0 CZ-2D
1 94328U 00000    26114.27430556  .00000000  00000+0  00000+0 0    03
2 94328  51.6761 259.3060 0000000   0.0000 124.7410 14.90941696    07

Day 1 Hour 0 nominals - Pre dogleg
0 PAYLOAD
1 94327U 00000    26001.00000000  .00000000  00000+0  00000+0 0    05
2 94327  51.6761  48.9123 0000000   0.0000 124.7410 14.90941696    08

0 CZ-2D
1 94328U 00000    26001.00000000  .00000000  00000+0  00000+0 0    06
2 94328  51.6761  48.9123 0000000   0.0000 124.7410 14.90941696    09

Rotated Launch Nominal - Post dogleg to 24Apr0644z provided by PPEC: 
0 PAYLOAD 
1 94327U 00000    26114.28113426  .00000000  00000+0  00000+0 0    07
2 94327  34.9950 259.3780 0000000   0.0000 161.3450 14.90941696    00

0 CZ-2D
1 94328U 00000    26114.28113426  .00000000  00000+0  00000+0 0    08
2 94328  35.1290 259.3760 0000000   0.0000 161.3460 14.90941696    00
 
Unrotated Launch Nominal - Post dogleg: 
0 PAYLOAD
1 94327U 00000    26001.00000000  .00000000  00000+0  00000+0 0    05
2 94327  34.9950  46.5192 0000000   0.0000 161.3450 14.90941696    03

0 CZ-2D
1 94328U 00000    26001.00000000  .00000000  00000+0  00000+0 0    06
2 94328  35.1290  46.5172 0000000   0.0000 161.3460 14.90941696    03
